[
    {
        "CCSDS_OMM_VERS": "3.0",
        "COMMENT": "GENERATED VIA SPACE-TRACK.ORG API",
        "CREATION_DATE": "2024-08-10T22:46:31",
        "ORIGINATOR": "18 SPCS",
        "OBJECT_NAME": "FENGYUN 1C DEB",
        "OBJECT_ID": "1999-025QJ",
        "CENTER_NAME": "EARTH",
        "REF_FRAME": "TEME",
        "TIME_SYSTEM": "UTC",
        "MEAN_ELEMENT_THEORY": "SGP4",
        "EPOCH": "2024-08-10T20:58:22.221120",
        "MEAN_MOTION": "13.97436945",
        "ECCENTRICITY": "0.00757270",
        "INCLINATION": "98.9090",
        "RA_OF_ASC_NODE": "228.1403",
        "ARG_OF_PERICENTER": "247.7659",
        "MEAN_ANOMALY": "183.9820",
        "EPHEMERIS_TYPE": "0",
        "CLASSIFICATION_TYPE": "U",
        "NORAD_CAT_ID": "30081",
        "ELEMENT_SET_NO": "999",
        "REV_AT_EPOCH": "89538",
        "BSTAR": "0.00083113000000",
        "MEAN_MOTION_DOT": "0.00001153",
        "MEAN_MOTION_DDOT": "0.0000000000000",
        "SEMIMAJOR_AXIS": "7280.821",
        "PERIOD": "103.046",
        "APOAPSIS": "957.822",
        "PERIAPSIS": "847.551",
        "OBJECT_TYPE": "DEBRIS",
        "RCS_SIZE": "SMALL",
        "COUNTRY_CODE": "PRC",
        "LAUNCH_DATE": "1999-05-10",
        "SITE": "TSC",
        "DECAY_DATE": null,
        "FILE": "4427523",
        "GP_ID": "264735245",
        "TLE_LINE0": "0 FENGYUN 1C DEB",
        "TLE_LINE1": "1 30081U 99025QJ  24223.87386830  .00001153  00000-0  83113-3 0  9992",
        "TLE_LINE2": "2 30081  98.9090 228.1403 0075727 247.7659 183.9820 13.97436945895382"
    },
    {
        "CCSDS_OMM_VERS": "3.0",
        "COMMENT": "GENERATED VIA SPACE-TRACK.ORG API",
        "CREATION_DATE": "2024-08-10T22:56:16",
        "ORIGINATOR": "18 SPCS",
        "OBJECT_NAME": "DIWATA 2B",
        "OBJECT_ID": "2018-084H",
        "CENTER_NAME": "EARTH",
        "REF_FRAME": "TEME",
        "TIME_SYSTEM": "UTC",
        "MEAN_ELEMENT_THEORY": "SGP4",
        "EPOCH": "2024-08-10T20:58:21.484992",
        "MEAN_MOTION": "14.95612367",
        "ECCENTRICITY": "0.00083310",
        "INCLINATION": "98.0792",
        "RA_OF_ASC_NODE": "23.4916",
        "ARG_OF_PERICENTER": "201.5824",
        "MEAN_ANOMALY": "158.5045",
        "EPHEMERIS_TYPE": "0",
        "CLASSIFICATION_TYPE": "U",
        "NORAD_CAT_ID": "43678",
        "ELEMENT_SET_NO": "999",
        "REV_AT_EPOCH": "31509",
        "BSTAR": "0.00047039000000",
        "MEAN_MOTION_DOT": "0.00005167",
        "MEAN_MOTION_DDOT": "0.0000000000000",
        "SEMIMAJOR_AXIS": "6958.610",
        "PERIOD": "96.282",
        "APOAPSIS": "586.272",
        "PERIAPSIS": "574.677",
        "OBJECT_TYPE": "PAYLOAD",
        "RCS_SIZE": "MEDIUM",
        "COUNTRY_CODE": "RP",
        "LAUNCH_DATE": "2018-10-29",
        "SITE": "TNSTA",
        "DECAY_DATE": null,
        "FILE": "4427592",
        "GP_ID": "264740606",
        "TLE_LINE0": "0 DIWATA 2B",
        "TLE_LINE1": "1 43678U 18084H   24223.87385978  .00005167  00000-0  47039-3 0  9992",
        "TLE_LINE2": "2 43678  98.0792  23.4916 0008331 201.5824 158.5045 14.95612367315097"
    },
    {
        "CCSDS_OMM_VERS": "3.0",
        "COMMENT": "GENERATED VIA SPACE-TRACK.ORG API",
        "CREATION_DATE": "2024-08-10T22:56:16",
        "ORIGINATOR": "18 SPCS",
        "OBJECT_NAME": "SNAP-3 ALICE",
        "OBJECT_ID": "2015-058G",
        "CENTER_NAME": "EARTH",
        "REF_FRAME": "TEME",
        "TIME_SYSTEM": "UTC",
        "MEAN_ELEMENT_THEORY": "SGP4",
        "EPOCH": "2024-08-10T20:58:19.168608",
        "MEAN_MOTION": "14.98288374",
        "ECCENTRICITY": "0.01542110",
        "INCLINATION": "64.7699",
        "RA_OF_ASC_NODE": "153.8951",
        "ARG_OF_PERICENTER": "284.1886",
        "MEAN_ANOMALY": "74.2140",
        "EPHEMERIS_TYPE": "0",
        "CLASSIFICATION_TYPE": "U",
        "NORAD_CAT_ID": "40970",
        "ELEMENT_SET_NO": "999",
        "REV_AT_EPOCH": "1397",
        "BSTAR": "0.00210250000000",
        "MEAN_MOTION_DOT": "0.00032112",
        "MEAN_MOTION_DDOT": "0.0000000000000",
        "SEMIMAJOR_AXIS": "6950.322",
        "PERIOD": "96.110",
        "APOAPSIS": "679.368",
        "PERIAPSIS": "465.005",
        "OBJECT_TYPE": "PAYLOAD",
        "RCS_SIZE": "SMALL",
        "COUNTRY_CODE": "US",
        "LAUNCH_DATE": "2015-10-08",
        "SITE": "AFWTR",
        "DECAY_DATE": null,
        "FILE": "4427587",
        "GP_ID": "264738784",
        "TLE_LINE0": "0 SNAP-3 ALICE",
        "TLE_LINE1": "1 40970U 15058G   24223.87383297  .00032112  00000-0  21025-2 0  9990",
        "TLE_LINE2": "2 40970  64.7699 153.8951 0154211 284.1886  74.2140 14.98288374 13978"
    },
    {
        "CCSDS_OMM_VERS": "3.0",
        "COMMENT": "GENERATED VIA SPACE-TRACK.ORG API",
        "CREATION_DATE": "2024-08-10T22:46:31",
        "ORIGINATOR": "18 SPCS",
        "OBJECT_NAME": "FENGYUN 1C DEB",
        "OBJECT_ID": "1999-025ARS",
        "CENTER_NAME": "EARTH",
        "REF_FRAME": "TEME",
        "TIME_SYSTEM": "UTC",
        "MEAN_ELEMENT_THEORY": "SGP4",
        "EPOCH": "2024-08-10T20:58:11.053920",
        "MEAN_MOTION": "14.11654585",
        "ECCENTRICITY": "0.00091120",
        "INCLINATION": "98.7223",
        "RA_OF_ASC_NODE": "245.7694",
        "ARG_OF_PERICENTER": "144.2873",
        "MEAN_ANOMALY": "339.8089",
        "EPHEMERIS_TYPE": "0",
        "CLASSIFICATION_TYPE": "U",
        "NORAD_CAT_ID": "30708",
        "ELEMENT_SET_NO": "999",
        "REV_AT_EPOCH": "89936",
        "BSTAR": "0.00045665000000",
        "MEAN_MOTION_DOT": "0.00000788",
        "MEAN_MOTION_DDOT": "0.0000000000000",
        "SEMIMAJOR_AXIS": "7231.852",
        "PERIOD": "102.008",
        "APOAPSIS": "860.307",
        "PERIAPSIS": "847.128",
        "OBJECT_TYPE": "DEBRIS",
        "RCS_SIZE": "SMALL",
        "COUNTRY_CODE": "PRC",
        "LAUNCH_DATE": "1999-05-10",
        "SITE": "TSC",
        "DECAY_DATE": null,
        "FILE": "4427451",
        "GP_ID": "264738040",
        "TLE_LINE0": "0 FENGYUN 1C DEB",
        "TLE_LINE1": "1 30708U 99025ARS 24223.87373905  .00000788  00000-0  45665-3 0  9990",
        "TLE_LINE2": "2 30708  98.7223 245.7694 0009112 144.2873 339.8089 14.11654585899365"
    },
    {
        "CCSDS_OMM_VERS": "3.0",
        "COMMENT": "GENERATED VIA SPACE-TRACK.ORG API",
        "CREATION_DATE": "2024-08-10T22:26:16",
        "ORIGINATOR": "18 SPCS",
        "OBJECT_NAME": "STARLINK-5162",
        "OBJECT_ID": "2022-141AD",
        "CENTER_NAME": "EARTH",
        "REF_FRAME": "TEME",
        "TIME_SYSTEM": "UTC",
        "MEAN_ELEMENT_THEORY": "SGP4",
        "EPOCH": "2024-08-10T20:58:10.550208",
        "MEAN_MOTION": "15.08810425",
        "ECCENTRICITY": "0.00012440",
        "INCLINATION": "53.2171",
        "RA_OF_ASC_NODE": "69.4185",
        "ARG_OF_PERICENTER": "97.3835",
        "MEAN_ANOMALY": "262.7298",
        "EPHEMERIS_TYPE": "0",
        "CLASSIFICATION_TYPE": "U",
        "NORAD_CAT_ID": "54184",
        "ELEMENT_SET_NO": "999",
        "REV_AT_EPOCH": "9915",
        "BSTAR": "-0.00046092000000",
        "MEAN_MOTION_DOT": "-0.00007610",
        "MEAN_MOTION_DDOT": "0.0000000000000",
        "SEMIMAJOR_AXIS": "6917.971",
        "PERIOD": "95.439",
        "APOAPSIS": "540.696",
        "PERIAPSIS": "538.975",
        "OBJECT_TYPE": "PAYLOAD",
        "RCS_SIZE": "LARGE",
        "COUNTRY_CODE": "US",
        "LAUNCH_DATE": "2022-10-28",
        "SITE": "AFWTR",
        "DECAY_DATE": null,
        "FILE": "4427154",
        "GP_ID": "264730762",
        "TLE_LINE0": "0 STARLINK-5162",
        "TLE_LINE1": "1 54184U 22141AD  24223.87373322 -.00007610  00000-0 -46092-3 0  9990",
        "TLE_LINE2": "2 54184  53.2171  69.4185 0001244  97.3835 262.7298 15.08810425 99156"
    },
    {
        "CCSDS_OMM_VERS": "3.0",
        "COMMENT": "GENERATED VIA SPACE-TRACK.ORG API",
        "CREATION_DATE": "2024-08-10T22:36:16",
        "ORIGINATOR": "18 SPCS",
        "OBJECT_NAME": "STARLINK-1727",
        "OBJECT_ID": "2020-062L",
        "CENTER_NAME": "EARTH",
        "REF_FRAME": "TEME",
        "TIME_SYSTEM": "UTC",
        "MEAN_ELEMENT_THEORY": "SGP4",
        "EPOCH": "2024-08-10T20:58:08.103360",
        "MEAN_MOTION": "15.06405030",
        "ECCENTRICITY": "0.00011970",
        "INCLINATION": "53.0546",
        "RA_OF_ASC_NODE": "81.5501",
        "ARG_OF_PERICENTER": "99.4379",
        "MEAN_ANOMALY": "260.6745",
        "EPHEMERIS_TYPE": "0",
        "CLASSIFICATION_TYPE": "U",
        "NORAD_CAT_ID": "46335",
        "ELEMENT_SET_NO": "999",
        "REV_AT_EPOCH": "21770",
        "BSTAR": "0.00178920000000",
        "MEAN_MOTION_DOT": "0.00026473",
        "MEAN_MOTION_DDOT": "0.0000000000000",
        "SEMIMAJOR_AXIS": "6925.333",
        "PERIOD": "95.592",
        "APOAPSIS": "548.027",
        "PERIAPSIS": "546.369",
        "OBJECT_TYPE": "PAYLOAD",
        "RCS_SIZE": "LARGE",
        "COUNTRY_CODE": "US",
        "LAUNCH_DATE": "2020-09-03",
        "SITE": "AFETR",
        "DECAY_DATE": null,
        "FILE": "4427369",
        "GP_ID": "264732246",
        "TLE_LINE0": "0 STARLINK-1727",
        "TLE_LINE1": "1 46335U 20062L   24223.87370490  .00026473  00000-0  17892-2 0  9993",
        "TLE_LINE2": "2 46335  53.0546  81.5501 0001197  99.4379 260.6745 15.06405030217706"
    }
]